{
    "links": {
        "self": "http://www.neowsapp.com/rest/v1/neo/54054371?api_key=iIulBulltgU6a56xZRHN4H3l9WmuAYTsLGpBGhQ2"
    },
    "id": "54054371",
    "neo_reference_id": "54054371",
    "name": "(2020 RB8)",
    "designation": "2020 RB8",
    "nasa_jpl_url": "http://ssd.jpl.nasa.gov/sbdb.cgi?sstr=54054371",
    "absolute_magnitude_h": 24.372,
    "estimated_diameter": {
        "kilometers": {
            "estimated_diameter_min": 0.0354940026,
            "estimated_diameter_max": 0.0793670026
        },
        "meters": {
            "estimated_diameter_min": 35.4940025858,
            "estimated_diameter_max": 79.3670025755
        },
        "miles": {
            "estimated_diameter_min": 0.0220549439,
            "estimated_diameter_max": 0.0493163538
        },
        "feet": {
            "estimated_diameter_min": 116.4501434437,
            "estimated_diameter_max": 260.3904367298
        }
    },
    "is_potentially_hazardous_asteroid": false,
    "close_approach_data": [
        {
            "close_approach_date": "1904-09-24",
            "close_approach_date_full": "1904-Sep-24 07:57",
            "epoch_date_close_approach": -2059747380000,
            "relative_velocity": {
                "kilometers_per_second": "14.4677843573",
                "kilometers_per_hour": "52084.0236861367",
                "miles_per_hour": "32362.9868287553"
            },
            "miss_distance": {
                "astronomical": "0.3780840096",
                "lunar": "147.0746797344",
                "kilometers": "56560562.517219552",
                "miles": "35145103.8480797376"
            },
            "orbiting_body": "Earth"
        },
        {
            "close_approach_date": "2018-07-20",
            "close_approach_date_full": "2018-Jul-20 08:33",
            "epoch_date_close_approach": 1532075580000,
            "relative_velocity": {
                "kilometers_per_second": "13.1094909834",
                "kilometers_per_hour": "47194.1675401169",
                "miles_per_hour": "29324.620380691"
            },
            "miss_distance": {
                "astronomical": "0.3789712842",
                "lunar": "147.4198295538",
                "kilometers": "56693296.907484654",
                "miles": "35227581.1736660652"
            },
            "orbiting_body": "Earth"
        },
        {
            "close_approach_date": "2020-09-07",
            "close_approach_date_full": "2020-Sep-07 16:29",
            "epoch_date_close_approach": 1599496140000,
            "relative_velocity": {
                "kilometers_per_second": "7.1128484669",
                "kilometers_per_hour": "25606.2544809541",
                "miles_per_hour": "15910.7307356795"
            },
            "miss_distance": {
                "astronomical": "0.106603778",
                "lunar": "41.468869642",
                "kilometers": "15947698.12275286",
                "miles": "9909440.106635068"
            },
            "orbiting_body": "Earth"
        }
    ],
    "orbital_data": {
        "orbit_id": "3",
        "orbit_determination_date": "2020-10-09 08:11:56",
        "first_observation_date": "2020-09-14",
        "last_observation_date": "2020-10-09",
        "data_arc_in_days": 25,
        "observations_used": 23,
        "orbit_uncertainty": "7",
        "minimum_orbit_intersection": ".0788229",
        "jupiter_tisserand_invariant": "4.243",
        "epoch_osculation": "2459000.5",
        "eccentricity": ".3367729793403088",
        "semi_major_axis": "1.624859843512589",
        "inclination": "8.361765287560221",
        "ascending_node_longitude": "170.2292288883464",
        "orbital_period": "756.5232602255312",
        "perihelion_distance": "1.077650953002427",
        "perihelion_argument": "159.0232965743819",
        "aphelion_distance": "2.172068734022751",
        "perihelion_time": "2459088.379613299661",
        "mean_anomaly": "318.1815094773864",
        "mean_motion": ".47586111217873",
        "equinox": "J2000",
        "orbit_class": {
            "orbit_class_type": "AMO",
            "orbit_class_description": "Near-Earth asteroid orbits similar to that of 1221 Amor",
            "orbit_class_range": "1.017 AU < q (perihelion) < 1.3 AU"
        }
    },
    "is_sentry_object": false
}